[{"OBJECT_NAME":"STARLINK-6351","OBJECT_ID":"2023-094Y","EPOCH":"2026-03-09T22:00:01.999584","MEAN_MOTION":15.08401775,"ECCENTRICITY":0.00014554,"INCLINATION":43.0006,"RA_OF_ASC_NODE":16.3016,"ARG_OF_PERICENTER":248.1623,"MEAN_ANOMALY":40.2554,"EPHEMERIS_TYPE":0,"CLASSIFICATION_TYPE":"U","NORAD_CAT_ID":57240,"ELEMENT_SET_NO":999,"REV_AT_EPOCH":567,"BSTAR":0.0022828192,"MEAN_MOTION_DOT":0.00036084,"MEAN_MOTION_DDOT":0},{"OBJECT_NAME":"JILIN-01 KUANFU 02B 5","OBJECT_ID":"2024-169E","EPOCH":"2026-03-09T22:46:28.718400","MEAN_MOTION":15.09244096,"ECCENTRICITY":0.00111722,"INCLINATION":97.556,"RA_OF_ASC_NODE":160.0628,"ARG_OF_PERICENTER":294.0678,"MEAN_ANOMALY":65.9381,"EPHEMERIS_TYPE":0,"CLASSIFICATION_TYPE":"U","NORAD_CAT_ID":61193,"ELEMENT_SET_NO":999,"REV_AT_EPOCH":8086,"BSTAR":0.00034816655,"MEAN_MOTION_DOT":5.486e-5,"MEAN_MOTION_DDOT":0}]
